{
    "links": {
        "self": "http://www.neowsapp.com/rest/v1/neo/3648871?api_key=iIulBulltgU6a56xZRHN4H3l9WmuAYTsLGpBGhQ2"
    },
    "id": "3648871",
    "neo_reference_id": "3648871",
    "name": "(2013 TY5)",
    "designation": "2013 TY5",
    "nasa_jpl_url": "http://ssd.jpl.nasa.gov/sbdb.cgi?sstr=3648871",
    "absolute_magnitude_h": 24.0,
    "estimated_diameter": {
        "kilometers": {
            "estimated_diameter_min": 0.0421264611,
            "estimated_diameter_max": 0.0941976306
        },
        "meters": {
            "estimated_diameter_min": 42.1264610556,
            "estimated_diameter_max": 94.1976305719
        },
        "miles": {
            "estimated_diameter_min": 0.0261761612,
            "estimated_diameter_max": 0.0585316759
        },
        "feet": {
            "estimated_diameter_min": 138.2101784897,
            "estimated_diameter_max": 309.0473542854
        }
    },
    "is_potentially_hazardous_asteroid": false,
    "close_approach_data": [
        {
            "close_approach_date": "2013-10-26",
            "close_approach_date_full": "2013-Oct-26 19:48",
            "epoch_date_close_approach": 1382816880000,
            "relative_velocity": {
                "kilometers_per_second": "10.4514400915",
                "kilometers_per_hour": "37625.1843294774",
                "miles_per_hour": "23378.8263407244"
            },
            "miss_distance": {
                "astronomical": "0.0813380712",
                "lunar": "31.6405096968",
                "kilometers": "12168002.201428344",
                "miles": "7560845.9668813872"
            },
            "orbiting_body": "Earth"
        }
    ],
    "orbital_data": {
        "orbit_id": "10",
        "orbit_determination_date": "2017-04-06 08:44:20",
        "first_observation_date": "2013-10-04",
        "last_observation_date": "2013-10-26",
        "data_arc_in_days": 22,
        "observations_used": 41,
        "orbit_uncertainty": "8",
        "minimum_orbit_intersection": ".0511851",
        "jupiter_tisserand_invariant": "3.182",
        "epoch_osculation": "2456572.5",
        "eccentricity": ".5996809065954202",
        "semi_major_axis": "2.503456495712484",
        "inclination": "6.22458248961818",
        "ascending_node_longitude": "203.647605853548",
        "orbital_period": "1446.799999765614",
        "perihelion_distance": "1.002181434741428",
        "perihelion_argument": "220.4690031346715",
        "aphelion_distance": "4.00473155668354",
        "perihelion_time": "2456615.092106881501",
        "mean_anomaly": "349.402019297882",
        "mean_motion": ".248824993128505",
        "equinox": "J2000",
        "orbit_class": {
            "orbit_class_type": "APO",
            "orbit_class_description": "Near-Earth asteroid orbits which cross the Earth’s orbit similar to that of 1862 Apollo",
            "orbit_class_range": "a (semi-major axis) > 1.0 AU; q (perihelion) < 1.017 AU"
        }
    },
    "is_sentry_object": false
}